FLOCK 4BE-17            
1 60492U 24149AA  26187.71319133  .00013202  00000+0  32854-3 0  9995
2 60492  97.3762 271.2433 0003807 168.5930 191.5403 15.40389000105266
FLOCK 4BE-22            
1 60494U 24149AC  26187.67710767  .00014193  00000+0  33702-3 0  9993
2 60494  97.3724 271.4298 0004095 178.8391 181.2866 15.41793946105305
FLOCK 4BE-34            
1 60495U 24149AD  26187.69448742  .00013198  00000+0  31389-3 0  9990
2 60495  97.3774 272.2822 0004017 186.4025 173.7172 15.41764770105338
FLOCK 4BE-32            
1 60497U 24149AF  26187.71472326  .00014884  00000+0  34086-3 0  9990
2 60497  97.3711 271.8613 0004199 184.7187 175.4021 15.42872074105346
FLOCK 4BE-11            
1 60501U 24149AK  26187.69908642  .00014745  00000+0  32887-3 0  9991
2 60501  97.3690 272.0942 0004329 182.9796 177.1427 15.43662757105364
FLOCK 4BE-24            
1 60505U 24149AP  26187.68392779  .00016869  00000+0  37340-3 0  9990
2 60505  97.3708 272.3427 0004399 196.4371 163.6735 15.43858185105370
FLOCK 4BE-29            
1 60509U 24149AT  26187.22829132  .00039923  00000+0  84813-3 0  9995
2 60509  97.3804 273.3958 0002765 199.1193 160.9952 15.44905523105357
FLOCK 4BE-2             
1 60511U 24149AV  26187.18676494  .00067920  00000+0  10059-2 0  9992
2 60511  97.3823 275.0526 0004919 198.0045 162.1036 15.55035092105453
FLOCK 4BE-13            
1 60512U 24149AW  26187.68695074  .00012297  00000+0  28607-3 0  9999
2 60512  97.3713 272.3075 0004410 182.1273 177.9956 15.42445897105374
FLOCK 4BE-27            
1 60513U 24149AX  26187.16925043  .00010234  00000+0  30557-3 0  9991
2 60513  97.3820 269.0332 0003102 215.0339 145.0700 15.34803020105054
FLOCK 4BE-9             
1 60514U 24149AY  26187.69953900  .00013674  00000+0  32894-3 0  9990
2 60514  97.3784 272.1676 0002895 196.3338 163.7816 15.41414253105327
FLOCK 4BE-6             
1 60516U 24149BA  26187.67904778  .00012777  00000+0  32059-3 0  9995
2 60516  97.3782 271.4680 0003508 200.5229 159.5876 15.40148027105278
FLOCK 4BE-14            
1 60517U 24149BB  26187.70927834  .00013508  00000+0  32234-3 0  9996
2 60517  97.3686 271.6526 0004496 205.4810 154.6216 15.41655927105334
FLOCK 4BE-1             
1 60518U 24149BC  26187.18599024  .00019953  00000+0  44976-3 0  9991
2 60518  97.3772 272.4710 0004156 206.1703 153.9335 15.43283335105300
FLOCK 4BE-28            
1 60519U 24149BD  26186.78315901  .00032701  00000+0  67797-3 0  9999
2 60519  97.3743 272.8436 0003621 197.6576 162.4548 15.45662812105311
FLOCK 4BE-5             
1 60559U 24149CV  26187.70827036  .00013961  00000+0  34189-3 0  9999
2 60559  97.3835 271.9030 0003199 198.4527 161.6603 15.40868016105280
